LEMUR-1                 
1 40044U 14033AL  26087.37246313  .00002512  00000+0  29566-3 0  9995
2 40044  97.7750 239.0423 0048101 344.8438  15.1333 14.84890482633477
LEMUR-2-GREENBERG       
1 42837U 17042N   26087.77638545  .00021489  00000+0  77064-3 0  9996
2 42837  97.3793 268.9347 0008084 290.6465  69.3908 15.28701449476097
LEMUR-2-ANDIS           
1 42838U 17042P   26087.44807939  .00026391  00000+0  86873-3 0  9991
2 42838  97.3673 268.5528 0008423 292.7664  67.2687 15.31443074476084
LEMUR-2-MONSON          
1 42839U 17042Q   26087.48652362  .00017948  00000+0  70727-3 0  9993
2 42839  97.4050 268.7286 0005727 277.5278  82.5309 15.25633162475851
LEMUR-2-FURIAUS         
1 42840U 17042R   26087.44426071  .00027260  00000+0  10232-2 0  9999
2 42840  97.3756 266.7561 0006874 350.3787   9.7320 15.27158581475873
LEMUR-2-PETERG          
1 42841U 17042S   26087.77455778  .00027311  00000+0  92468-3 0  9991
2 42841  97.3989 272.8737 0003240 257.6169 102.4709 15.30554707476127
LEMUR-2-DEMBITZ         
1 42842U 17042T   26087.47480906  .00022369  00000+0  82802-3 0  9999
2 42842  97.3816 269.7237 0005908 305.3990  54.6697 15.27665474476015
LEMUR-2-ZACHARY         
1 42845U 17042W   26087.78490427  .00047352  00000+0  10475-2 0  9990
2 42845  97.3657 278.0871 0003118 301.1642  58.9300 15.43666106476779
LEMUR-2-JIN-LUEN        
1 43182U 18014C   26087.79182975  .00658614  17900-3  18991-2 0  9993
2 43182  97.5392  20.0114 0009869 141.8360 218.3615 15.92980067448490
LEMUR-2-KADI            
1 43184U 18014E   26087.77359068  .00135429  00000+0  11976-2 0  9991
2 43184  97.4640  13.6075 0005144 130.9770 229.1937 15.68205860448375
LEMUR-2-AMANDA-SVANTE   
1 48269U 21034B   26087.75476403  .00035610  00000+0  12391-2 0  9990
2 48269  97.5808 164.2007 0004104 156.8090 203.3335 15.29606540268740
LEMUR-2-SPECIAL-K       
1 48273U 21034F   26087.80030647  .00087308  00000+0  16399-2 0  9990
2 48273  97.5688 169.9733 0002277 193.1032 167.0159 15.48286286269190
LEMUR-2-EMBRIONOVIS     
1 56970U 23084AQ  26087.38075078  .00018961  00000+0  55475-3 0  9998
2 56970  97.6160 228.6702 0008343 237.0246 123.0195 15.35272678155274
LEMUR-2-MANO            
1 57390U 23100E   26087.83381350  .00206403  00000+0  19081-2 0  9999
2 57390  99.4497 116.8038 0006025 191.3826 168.7292 15.66866989149472
LEMUR-2-DEVERILL-M-T    
1 57391U 23100F   26087.55081836  .00031008  00000+0  88980-3 0  9997
2 57391  99.4563 103.2922 0005782 319.9079  40.1731 15.35815032148857
LEMUR-2-BASS            
1 58259U 23174D   26087.79684504  .00020541  00000+0  50775-3 0  9990
2 58259  97.3862 171.5467 0008651 102.7616 257.4597 15.40466241132974
